[ ["ATLAS CENTAUR 2", 694, "1 00694U 63047A   26204.25224610  .00000803  00000+0  83247-4 0  9993", "2 00694  30.3538 157.6920 0545680 195.5901 162.7264 14.12572976150807", null], ["THOR AGENA D R/B", 733, "1 00733U 64002A   26204.43774889  .00000141  00000+0  67573-4 0  9996", "2 00733  99.1155 225.1250 0032129 221.8691 138.0034 14.34078709257756", null], ["SL-3 R/B", 877, "1 00877U 64053B   26204.52992810  .00000105  00000+0  44687-4 0  9998", "2 00877  65.0776 292.9514 0079956 249.6854 109.5641 14.61442781286641", null], ["SL-8 R/B", 2802, "1 02802U 67045B   26204.69224314  .00000211  00000+0  65876-4 0  9998", "2 02802  74.0108  94.0793 0063139  68.3604 292.4263 14.45698839108672", null], ["SL-8 R/B", 3230, "1 03230U 68040B   26204.77025341  .00002327  00000+0  17056-3 0  9994", "2 03230  74.0292  35.4617 0024593 181.5353 178.5765 15.03972859110469", null], ["OAO 2", 3597, "1 03597U 68110A   26204.47869322  .00000132  00000+0  40613-4 0  9998", "2 03597  34.9919 227.0411 0005753 211.5326 148.5020 14.47363750 38784", null], ["ISIS 1", 3669, "1 03669U 69009A   26204.83791354  .00000082  00000+0  48617-4 0  9991", "2 03669  88.4457 140.3762 1707274 174.2084 188.1847 11.30437610363914", null], ["SERT 2", 4327, "1 04327U 70009A   26204.58214522 -.00000008  00000+0  45848-4 0  9996", "2 04327  99.2839 140.3424 0004890 167.4864  14.8383 13.58741507798342", null], ["SL-3 R/B", 5118, "1 05118U 71028B   26204.79550280  .00055982  00000+0  40309-3 0  9990", "2 05118  81.2299 242.4087 0014797 153.1061 207.0969 15.73205064  9993", null], ["ASTEX 1", 5560, "1 05560U 71089A   26204.83276630  .00000424  00000+0  10772-3 0  9999", "2 05560  92.7014 195.6592 0015124 353.7966   6.3050 14.50877109882048", null], ["SL-8 R/B", 5730, "1 05730U 71119B   26204.63862612  .00007979  00000+0  40702-3 0  9999", "2 05730  73.8872 281.1204 0542243 219.7406 136.2835 14.39826040675046", null], ["OAO 3 (COPERNICUS)", 6153, "1 06153U 72065A   26204.56700027  .00000200  00000+0  45265-4 0  9993", "2 06153  35.0046 243.1143 0006708 197.3039 323.7091 14.60077734866066", null], ["ATLAS CENTAUR R/B", 6155, "1 06155U 72065B   26204.41941023  .00000599  00000+0  84487-4 0  9992", "2 06155  34.9998 230.1218 0032936  72.7009 287.7291 14.77973415861353", null], ["SL-8 R/B", 8459, "1 08459U 75112B   26204.76678806  .00000178  00000+0  67129-4 0  9998", "2 08459  74.0612 128.5806 0015872 189.4184 170.6675 14.38261215651430", null], ["SL-3 R/B", 10114, "1 10114U 77057B   26204.66952146  .00010307  00000+0  19517-3 0  9992", "2 10114  97.5857  23.0002 0007976 141.4554 218.7267 15.48541891689350", null], ["SEASAT 1", 10967, "1 10967U 78064A   26204.34511123  .00000101  00000+0  66625-4 0  9992", "2 10967 108.0178  50.1946 0001036 268.4580  91.6447 14.46263064526121", null], ["SL-14 R/B", 11267, "1 11267U 79011B   26204.59152733  .00000455  00000+0  42291-4 0  9999", "2 11267  82.5263 327.6061 0015048 328.2646  31.7665 14.92043515549043", null], ["SL-8 R/B", 11574, "1 11574U 79089B   26204.40900969  .00000124  00000+0  45376-4 0  9997", "2 11574  74.0672 199.8030 0016344 332.9506  27.0797 14.42416393455678", null], ["SL-14 R/B", 11672, "1 11672U 80005B   26204.89556253  .00000537  00000+0  51504-4 0  9990", "2 11672  82.5147 178.0189 0017263  71.1854 289.1236 14.91056269496783", null], ["SL-8 R/B", 12139, "1 12139U 81003B   26204.35305709  .00025062  00000+0  59373-3 0  9998", "2 12139  82.9383 164.1471 0248736  65.3249 297.3663 15.15358135335198", null], ["SL-3 R/B", 12465, "1 12465U 81046B   26204.72716041  .00011981  00000+0  25292-3 0  9991", "2 12465  81.2311 126.0285 0015651 264.1031  95.8429 15.44927708459412", null], ["SL-3 R/B", 12904, "1 12904U 81103B   26204.79447256  .00004501  00000+0  19260-3 0  9997", "2 12904  81.1571  53.6134 0012678 181.9739 178.1445 15.22535746993938", null], ["SL-3 R/B", 13068, "1 13068U 82013B   26204.82027223  .00003520  00000+0  14750-3 0  9991", "2 13068  81.1745   1.0477 0022868  80.7978 279.5840 15.23008950425065", null], ["SL-3 R/B", 13154, "1 13154U 82039B   26204.79649476  .00002376  00000+0  14058-3 0  9990", "2 13154  81.1521  58.7960 0029268 229.4517 130.4160 15.10729344402182", null], ["SL-3 R/B", 13403, "1 13403U 82079B   26204.83777552  .00004587  00000+0  17546-3 0  9994", "2 13403  81.1451  32.1214 0024769  65.5789 294.8025 15.26075781398455", null], ["SL-14 R/B", 13553, "1 13553U 82092B   26204.45682328  .00000390  00000+0  40892-4 0  9998", "2 13553  82.5675  14.3581 0019574 206.8089 183.2984 14.86769290349107", null], ["SL-3 R/B", 13819, "1 13819U 83010B   26204.41209626  .00013491  00000+0  23871-3 0  9999", "2 13819  81.1003 195.3186 0012786 291.5697  68.4187 15.50076272378943", null], ["SL-3 R/B", 14208, "1 14208U 83075B   26204.82677495  .00010333  00000+0  24960-3 0  9993", "2 14208  97.6114 214.8453 0022447 101.2705 259.1065 15.41112625351103", null], ["COSMOS 1536", 14699, "1 14699U 84013A   26204.77022383  .00006786  00000+0  26647-3 0  9995", "2 14699  82.5459 332.3981 0014703 158.6327 201.5528 15.25424756293356", null], ["SL-14 R/B", 14820, "1 14820U 84027B   26204.50748623  .00000309  00000+0  32434-4 0  9996", "2 14820  82.5429 117.6596 0016481 241.4115 118.5444 14.86083012267803", null], ["SL-8 R/B", 15483, "1 15483U 85006B   26204.76284958  .00000225  00000+0  83074-4 0  9997", "2 15483  74.0461  10.7532 0019230 252.6059 223.9904 14.37848779173588", null]]